GLOBALSTAR M045         
1 25676U 99019A   24301.23434161 -.00000130  00000+0 -31993-3 0  9991
2 25676  51.9967 249.2287 0000835  72.8201  75.0486 12.27047943164791
GLOBALSTAR M019         
1 25677U 99019B   24301.58423142  .00000074  00000+0  17125-2 0  9992
2 25677  51.9908   2.2296 0001118 187.9326 318.6560 12.13866342156893
GLOBALSTAR M044         
1 25678U 99019C   24301.32884963 -.00000025  00000+0  81478-3 0  9997
2 25678  51.9966 285.1700 0006500 315.5257 191.5378 11.90245093143598
GLOBALSTAR M042         
1 25679U 99019D   24301.55693309  .00000001  00000+0  88012-3 0  9999
2 25679  52.0040 347.6705 0003007 172.0362 345.5932 12.22071695156812
GLOBALSTAR M025         
1 25770U 99031A   24301.56829514 -.00000028  00000+0  12281-2 0  9999
2 25770  51.9846 338.1507 0001669 114.4499  55.3063 11.22555088455583
GLOBALSTAR M049         
1 25771U 99031B   24301.55481979 -.00000068  00000+0 -11036-3 0  9991
2 25771  51.9916   1.2522 0002883 352.3015   7.7736 11.12112034 91542
GLOBALSTAR M047         
1 25772U 99031C   24301.54668120 -.00000049  00000+0  57478-3 0  9994
2 25772  51.9872  20.4648 0016280 221.5897 138.3671 11.31924341444765
GLOBALSTAR M052         
1 25773U 99031D   24301.60615157 -.00000054  00000+0  40877-3 0  9995
2 25773  51.9832 113.0801 0003351 130.0209 314.0951 11.15055001452569
